{
  "norad_id": 26715,
  "name": "USA 157 (MILSTAR-2 2)",
  "history": [
    {
      "epoch": "2026-04-19T11:41:23.718912Z",
      "apogee_km": 35946.038935513745,
      "perigee_km": 35626.37166095339,
      "latitude_deg": -6.2309978884114186,
      "longitude_deg": -150.37407597750152,
      "height_km": 35649.293965466655,
      "semi_major_axis_km": 42164.34229823357,
      "eccentricity": 0.00379073,
      "inclination_deg": 11.4797,
      "raan_deg": 20.1239,
      "arg_perigee_deg": 181.6088,
      "mean_anomaly_deg": 31.1258,
      "mean_motion_rev_day": 1.00273175
    },
    {
      "epoch": "2026-04-20T11:23:02.733216Z",
      "apogee_km": 35945.76853735041,
      "perigee_km": 35626.404900919035,
      "latitude_deg": -5.611116261671915,
      "longitude_deg": -150.35762309903092,
      "height_km": 35644.24405211926,
      "semi_major_axis_km": 42164.22371913472,
      "eccentricity": 0.00378714,
      "inclination_deg": 11.4809,
      "raan_deg": 20.1188,
      "arg_perigee_deg": 181.6267,
      "mean_anomaly_deg": 27.5025,
      "mean_motion_rev_day": 1.00273598
    },
    {
      "epoch": "2026-04-21T11:47:07.849248Z",
      "apogee_km": 35945.43740791737,
      "perigee_km": 35626.46691668634,
      "latitude_deg": -6.801474314539571,
      "longitude_deg": -150.36302477828272,
      "height_km": 35654.75864288121,
      "semi_major_axis_km": 42164.089162301854,
      "eccentricity": 0.00378249,
      "inclination_deg": 11.4822,
      "raan_deg": 20.1136,
      "arg_perigee_deg": 181.6281,
      "mean_anomaly_deg": 34.5353,
      "mean_motion_rev_day": 1.00274078
    },
    {
      "epoch": "2026-04-22T11:05:06.717120Z",
      "apogee_km": 35945.093910405674,
      "perigee_km": 35626.53681750552,
      "latitude_deg": -5.167559794714748,
      "longitude_deg": -150.32838422104817,
      "height_km": 35641.31573924578,
      "semi_major_axis_km": 42163.9523639556,
      "eccentricity": 0.0037776,
      "inclination_deg": 11.4834,
      "raan_deg": 20.1087,
      "arg_perigee_deg": 181.5841,
      "mean_anomaly_deg": 25.0434,
      "mean_motion_rev_day": 1.00274566
    },
    {
      "epoch": "2026-04-23T11:17:31.155936Z",
      "apogee_km": 35944.686309181074,
      "perigee_km": 35626.63718574519,
      "latitude_deg": -5.892025037664618,
      "longitude_deg": -150.33406063808093,
      "height_km": 35646.881314563434,
      "semi_major_axis_km": 42163.79874746314,
      "eccentricity": 0.00377159,
      "inclination_deg": 11.4846,
      "raan_deg": 20.1035,
      "arg_perigee_deg": 181.534,
      "mean_anomaly_deg": 29.2039,
      "mean_motion_rev_day": 1.00275114
    },
    {
      "epoch": "2026-04-24T10:49:58.773216Z",
      "apogee_km": 35944.30316442364,
      "perigee_km": 35626.70973649738,
      "latitude_deg": -4.8430173837530495,
      "longitude_deg": -150.29449053045454,
      "height_km": 35639.509925164784,
      "semi_major_axis_km": 42163.64345046051,
      "eccentricity": 0.0037662,
      "inclination_deg": 11.4857,
      "raan_deg": 20.0982,
      "arg_perigee_deg": 181.4635,
      "mean_anomaly_deg": 23.3723,
      "mean_motion_rev_day": 1.00275668
    },
    {
      "epoch": "2026-04-25T11:12:38.646144Z",
      "apogee_km": 35943.91677904633,
      "perigee_km": 35626.76310548661,
      "latitude_deg": -6.0272062533461455,
      "longitude_deg": -150.310093506155,
      "height_km": 35648.27472167091,
      "semi_major_axis_km": 42163.476942266476,
      "eccentricity": 0.003761,
      "inclination_deg": 11.4868,
      "raan_deg": 20.0926,
      "arg_perigee_deg": 181.3724,
      "mean_anomaly_deg": 30.1496,
      "mean_motion_rev_day": 1.00276262
    },
    {
      "epoch": "2026-04-26T11:19:50.857824Z",
      "apogee_km": 35943.57438965425,
      "perigee_km": 35626.77696678145,
      "latitude_deg": -6.502532564010674,
      "longitude_deg": -150.2999733698306,
      "height_km": 35652.68372203163,
      "semi_major_axis_km": 42163.31267821785,
      "eccentricity": 0.00375679,
      "inclination_deg": 11.4878,
      "raan_deg": 20.0868,
      "arg_perigee_deg": 181.2017,
      "mean_anomaly_deg": 33.1325,
      "mean_motion_rev_day": 1.00276848
    },
    {
      "epoch": "2026-04-27T10:56:17.861856Z",
      "apogee_km": 35943.255897622534,
      "perigee_km": 35626.770858255644,
      "latitude_deg": -5.668633125569529,
      "longitude_deg": -150.27158509738584,
      "height_km": 35645.6378982811,
      "semi_major_axis_km": 42163.15037793909,
      "eccentricity": 0.0037531,
      "inclination_deg": 11.4889,
      "raan_deg": 20.0809,
      "arg_perigee_deg": 181.0688,
      "mean_anomaly_deg": 28.3702,
      "mean_motion_rev_day": 1.00277427
    },
    {
      "epoch": "2026-04-28T09:20:50.656416Z",
      "apogee_km": 35942.98984134393,
      "perigee_km": 35626.73362046317,
      "latitude_deg": -1.3204840827561535,
      "longitude_deg": -150.05457216863977,
      "height_km": 35626.41895916968,
      "semi_major_axis_km": 42162.99873090356,
      "eccentricity": 0.0037504,
      "inclination_deg": 11.4898,
      "raan_deg": 20.075,
      "arg_perigee_deg": 180.9255,
      "mean_anomaly_deg": 5.5939,
      "mean_motion_rev_day": 1.00277968
    },
    {
      "epoch": "2026-04-29T09:07:15.163104Z",
      "apogee_km": 35942.772550209906,
      "perigee_km": 35626.6364080562,
      "latitude_deg": -0.8433012705859001,
      "longitude_deg": -150.00484337538492,
      "height_km": 35625.76386274385,
      "semi_major_axis_km": 42162.84147913305,
      "eccentricity": 0.00374899,
      "inclination_deg": 11.4908,
      "raan_deg": 20.0687,
      "arg_perigee_deg": 180.7691,
      "mean_anomaly_deg": 3.356,
      "mean_motion_rev_day": 1.00278529
    },
    {
      "epoch": "2026-04-30T09:15:38.577024Z",
      "apogee_km": 35945.74490409193,
      "perigee_km": 35629.83356813833,
      "latitude_deg": -1.4589300410767636,
      "longitude_deg": -150.0642510589243,
      "height_km": 35630.21311808338,
      "semi_major_axis_km": 42165.926236115134,
      "eccentricity": 0.00374605,
      "inclination_deg": 11.4917,
      "raan_deg": 20.0616,
      "arg_perigee_deg": 179.4935,
      "mean_anomaly_deg": 7.6982,
      "mean_motion_rev_day": 1.00267525
    },
    {
      "epoch": "2026-05-02T09:39:38.882304Z",
      "apogee_km": 35945.73095703641,
      "perigee_km": 35629.26101522231,
      "latitude_deg": -3.030099870139043,
      "longitude_deg": -150.18655888177977,
      "height_km": 35634.5937465455,
      "semi_major_axis_km": 42165.63298612936,
      "eccentricity": 0.0037527,
      "inclination_deg": 11.4937,
      "raan_deg": 20.0484,
      "arg_perigee_deg": 179.2349,
      "mean_anomaly_deg": 15.927,
      "mean_motion_rev_day": 1.00268571
    },
    {
      "epoch": "2026-05-03T10:23:18.505248Z",
      "apogee_km": 35945.815848513404,
      "perigee_km": 35628.90923038481,
      "latitude_deg": -5.262747168650118,
      "longitude_deg": -150.2939223152172,
      "height_km": 35647.172473521416,
      "semi_major_axis_km": 42165.49953944911,
      "eccentricity": 0.00375789,
      "inclination_deg": 11.4948,
      "raan_deg": 20.0414,
      "arg_perigee_deg": 179.0969,
      "mean_anomaly_deg": 27.9891,
      "mean_motion_rev_day": 1.00269047
    },
    {
      "epoch": "2026-05-04T09:45:17.349984Z",
      "apogee_km": 35945.92085047037,
      "perigee_km": 35628.55976493377,
      "latitude_deg": -3.6795213237840603,
      "longitude_deg": -150.24378789233097,
      "height_km": 35637.17687468666,
      "semi_major_axis_km": 42165.377307702074,
      "eccentricity": 0.00376329,
      "inclination_deg": 11.4957,
      "raan_deg": 20.0347,
      "arg_perigee_deg": 179.0012,
      "mean_anomaly_deg": 19.5352,
      "mean_motion_rev_day": 1.00269483
    },
    {
      "epoch": "2026-05-05T09:14:38.522976Z",
      "apogee_km": 35946.05635213096,
      "perigee_km": 35628.18092293074,
      "latitude_deg": -2.379645745758784,
      "longitude_deg": -150.18559142557854,
      "height_km": 35631.53159072403,
      "semi_major_axis_km": 42165.255637530856,
      "eccentricity": 0.0037694,
      "inclination_deg": 11.4967,
      "raan_deg": 20.0281,
      "arg_perigee_deg": 178.9457,
      "mean_anomaly_deg": 12.8908,
      "mean_motion_rev_day": 1.00269917
    },
    {
      "epoch": "2026-05-06T19:16:16.754016Z",
      "apogee_km": 35946.318449064274,
      "perigee_km": 35627.60091625937,
      "latitude_deg": -3.1883271200750327,
      "longitude_deg": -149.64366972230954,
      "height_km": 35940.974209314336,
      "semi_major_axis_km": 42165.096682661824,
      "eccentricity": 0.0037794,
      "inclination_deg": 11.4981,
      "raan_deg": 20.0187,
      "arg_perigee_deg": 178.8547,
      "mean_anomaly_deg": 164.7869,
      "mean_motion_rev_day": 1.00270484
    },
    {
      "epoch": "2026-05-07T09:32:06.916128Z",
      "apogee_km": 35946.487604247195,
      "perigee_km": 35627.306728614145,
      "latitude_deg": -3.6106970753263714,
      "longitude_deg": -150.26621036045353,
      "height_km": 35635.939380213116,
      "semi_major_axis_km": 42165.03416643067,
      "eccentricity": 0.0037849,
      "inclination_deg": 11.4987,
      "raan_deg": 20.0148,
      "arg_perigee_deg": 178.8398,
      "mean_anomaly_deg": 19.3463,
      "mean_motion_rev_day": 1.00270707
    },
    {
      "epoch": "2026-05-08T19:11:00.378816Z",
      "apogee_km": 35946.7938560702,
      "perigee_km": 35626.72854680274,
      "latitude_deg": -3.0663273225744647,
      "longitude_deg": -149.6732445979439,
      "height_km": 35941.899562597806,
      "semi_major_axis_km": 42164.898201436474,
      "eccentricity": 0.0037954,
      "inclination_deg": 11.5001,
      "raan_deg": 20.0056,
      "arg_perigee_deg": 178.814,
      "mean_anomaly_deg": 165.4787,
      "mean_motion_rev_day": 1.00271192
    }
  ]
}